STARLINK-4019           
1 52598U 22052A   22275.83566249 -.00001172  00000+0 -55582-4 0  9992
2 52598  53.2155 152.8827 0001846  53.3629 306.7532 15.08834205 22299
STARLINK-4024           
1 52599U 22052B   22276.01187220  .00000148  00000+0  27414-4 0  9995
2 52599  53.2190 147.0908 0001946  47.0442 313.0714 15.08834583 21964
STARLINK-4026           
1 52600U 22052C   22276.06611877  .00000040  00000+0  20628-4 0  9994
2 52600  53.2174 146.8478 0001700  51.3986 308.7158 15.08847472 21972
STARLINK-4027           
1 52601U 22052D   22275.80852112  .00001459  00000+0  10978-3 0  9996
2 52601  53.2158 148.0051 0001585  67.4122 292.7038 15.08832877 22363
STARLINK-4012           
1 52602U 22052E   22275.87108020 -.00004271  00000+0 -25042-3 0  9991
2 52602  53.2157 147.7253 0001770  60.4117 299.7051 15.08839371 22375
STARLINK-4016           
1 52603U 22052F   22275.92259064  .00000764  00000+0  66118-4 0  9994
2 52603  53.2182 147.4953 0001704  54.4913 305.6238 15.08843385 21959
STARLINK-4013           
1 52604U 22052G   22276.06244378 -.00001749  00000+0 -91785-4 0  9997
2 52604  53.2178 146.8556 0001798  50.3863 309.7288 15.08845315 21976
STARLINK-4000           
1 52605U 22052H   22276.03070230 -.00001330  00000+0 -65450-4 0  9995
2 52605  53.2158 152.0109 0001691  58.4030 301.7127 15.08846617 21896
STARLINK-3928           
1 52606U 22052J   22275.86002799 -.00001051  00000+0 -47951-4 0  9997
2 52606  53.2175 147.7678 0001737  53.0335 307.0816 15.08842355 21572
STARLINK-3947           
1 52607U 22052K   22276.08958002  .00000332  00000+0  38985-4 0  9996
2 52607  53.2160 151.7401 0001737  61.7431 298.3736 15.08843957 21908
STARLINK-3979           
1 52608U 22052L   22275.85268267 -.00002104  00000+0 -11411-3 0  9993
2 52608  53.2179 147.8057 0001923  45.9091 314.2059 15.08840677 21570
STARLINK-3997           
1 52609U 22052M   22276.04500314 -.00001435  00000+0 -72054-4 0  9995
2 52609  53.2193 146.9578 0001926  51.5200 308.5965 15.08839062 21975
STARLINK-3998           
1 52610U 22052N   22275.82831064 -.00002271  00000+0 -12463-3 0  9997
2 52610  53.2171 152.9162 0002024  39.2864 320.8274 15.08828612 21494
STARLINK-3980           
1 52611U 22052P   22275.95342628 -.00000395  00000+0 -67364-5 0  9992
2 52611  53.2175 152.3520 0001752  58.2335 301.8827 15.08829913 21883
STARLINK-4002           
1 52612U 22052Q   22275.84900060  .00003707  00000+0  25090-3 0  9997
2 52612  53.2170 147.8315 0001771  52.3969 307.7184 15.08842007 21575
STARLINK-3921           
1 52613U 22052R   22275.83152578  .00006360  00000+0  41734-3 0  9991
2 52613  53.2140 137.9024 0001469  72.5072 287.6080 15.08840105 21706
STARLINK-3982           
1 52614U 22052S   22276.16640352  .00001913  00000+0  13827-3 0  9992
2 52614  53.2162 136.3978 0001647  56.8374 303.2776 15.08836829 22122
STARLINK-4011           
1 52615U 22052T   22276.01597776  .00000783  00000+0  67294-4 0  9990
2 52615  53.2172 152.0706 0001705  66.4930 293.6241 15.08835406 21890
STARLINK-4015           
1 52616U 22052U   22275.82784646  .00000213  00000+0  31505-4 0  9997
2 52616  53.2144 137.9249 0001508  64.6065 295.5083 15.08843468 21706
STARLINK-3996           
1 52617U 22052V   22275.88316373  .00002809  00000+0  20306-3 0  9991
2 52617  53.2147 137.6305 0001594  70.4513 289.6650 15.07208756 21706
STARLINK-3983           
1 52618U 22052W   22275.89040234 -.00001087  00000+0 -50212-4 0  9992
2 52618  53.2174 137.6516 0001385  65.0815 295.0321 15.08831348 21700
STARLINK-3741           
1 52619U 22052X   22276.01647097  .00000599  00000+0  55754-4 0  9999
2 52619  53.2175 137.0838 0001704  57.7043 302.4114 15.08844213 22102
STARLINK-3975           
1 52620U 22052Y   22276.14477956 -.00000457  00000+0 -10646-4 0  9996
2 52620  53.2169 151.4989 0001618  57.6780 302.4368 15.08842950 21910
STARLINK-3984           
1 52621U 22052Z   22275.87568123 -.00000892  00000+0 -37934-4 0  9995
2 52621  53.2153 137.7181 0001845  52.8585 307.2575 15.08841902 21703
STARLINK-4008           
1 52622U 22052AA  22276.04174604 -.00000458  00000+0 -10659-4 0  9996
2 52622  53.2181 151.9616 0001438  76.7159 283.3994 15.08836887 21903
STARLINK-3986           
1 52623U 22052AB  22276.13696418  .00000962  00000+0  78542-4 0  9992
2 52623  53.2164 136.5445 0001665  51.1159 308.9982 15.08839053 22127
STARLINK-4009           
1 52624U 22052AC  22275.88305056 -.00001764  00000+0 -92787-4 0  9999
2 52624  53.2173 137.6839 0001480  59.4450 300.6688 15.08836128 21702
STARLINK-3988           
1 52625U 22052AD  22275.86831671  .00001930  00000+0  13929-3 0  9998
2 52625  53.2166 137.7338 0001327  72.0649 288.0488 15.08838924 21704
STARLINK-3990           
1 52626U 22052AE  22275.87937403 -.00000618  00000+0 -20740-4 0  9994
2 52626  53.2175 137.6994 0001759  63.5068 296.6104 15.08829844 21702
STARLINK-3992           
1 52627U 22052AF  22275.85729710 -.00003280  00000+0 -18811-3 0  9996
2 52627  53.2196 137.7956 0001781  52.7979 307.3176 15.08837603 21713
STARLINK-4001           
1 52628U 22052AG  22276.03806289 -.00000892  00000+0 -37963-4 0  9991
2 52628  53.2193 151.9839 0001820  56.9693 303.1474 15.08842259 21901
STARLINK-4022           
1 52629U 22052AH  22275.85359631  .00000659  00000+0  59496-4 0  9999
2 52629  53.2183 137.8051 0001441  52.9825 307.1299 15.08838845 21705
STARLINK-3989           
1 52630U 22052AJ  22275.86464831 -.00001925  00000+0 -10287-3 0  9994
2 52630  53.2197 137.7608 0002054  45.9014 314.2147 15.08828285 21700
STARLINK-3794           
1 52631U 22052AK  22275.84992372  .00000245  00000+0  33460-4 0  9990
2 52631  53.2180 137.8224 0001473  58.4179 301.6957 15.08842768 21715
STARLINK-3995           
1 52632U 22052AL  22275.86097163 -.00002057  00000+0 -11119-3 0  9998
2 52632  53.2161 137.7648 0001432  48.0884 312.0230 15.08837318 21712
STARLINK-3994           
1 52633U 22052AM  22276.03759590 -.00000639  00000+0 -22039-4 0  9996
2 52633  53.2182 136.9695 0001390  59.9211 300.1919 15.08838357 22118
STARLINK-3974           
1 52634U 22052AN  22275.85086992  .00000640  00000+0  58288-4 0  9990
2 52634  53.2174 137.8179 0001705  52.8245 307.2903 15.08841672 21705
STARLINK-3978           
1 52635U 22052AP  22276.02011503 -.00000101  00000+0  11744-4 0  9996
2 52635  53.2159 127.0561 0001770  48.5927 311.5217 15.08848471 22246
STARLINK-3967           
1 52636U 22052AQ  22275.84624056 -.00001822  00000+0 -96450-4 0  9998
2 52636  53.2171 137.8295 0001538  68.3023 291.8133 15.08835133 21701
STARLINK-3961           
1 52637U 22052AR  22275.88396706 -.00001755  00000+0 -92208-4 0  9993
2 52637  53.2171 127.6695 0001694  56.1268 303.9886 15.08827974 22651
STARLINK-3941           
1 52638U 22052AS  22275.84255787  .00002094  00000+0  14962-3 0  9998
2 52638  53.2177 137.8487 0001576  62.2271 297.8881 15.08838364 22517
STARLINK-3968           
1 52639U 22052AT  22275.87293178 -.00001936  00000+0 -10358-3 0  9999
2 52639  53.2172 127.7152 0001975  49.5441 310.5723 15.08837748 22658
STARLINK-3977           
1 52640U 22052AU  22275.88860262 -.00001412  00000+0 -70679-4 0  9998
2 52640  53.2161 127.6473 0001662  54.7667 305.3480 15.08827374 21840
STARLINK-3991           
1 52641U 22052AV  22275.86924014 -.00001175  00000+0 -55696-4 0  9991
2 52641  53.2165 127.7344 0002252  36.2839 323.8306 15.08835948 21854
STARLINK-3971           
1 52642U 22052AW  22276.01276250 -.00001555  00000+0 -79608-4 0  9993
2 52642  53.2157 127.0883 0001836  45.3703 314.7439 15.08832707 22245
STARLINK-3963           
1 52643U 22052AX  22275.85820811 -.00000179  00000+0  68888-5 0  9992
2 52643  53.2184 127.7779 0001946  50.8518 309.2647 15.08841051 21841
STARLINK-3985           
1 52644U 22052AY  22275.87660318 -.00001032  00000+0 -46744-4 0  9995
2 52644  53.2171 127.7008 0001866  46.4084 313.7062 15.08846585 21841
STARLINK-3973           
1 52645U 22052AZ  22275.98795694 -.00001060  00000+0 -48491-4 0  9996
2 52645  53.2186 127.1976 0001926  51.1960 308.9204 15.08842121 22240
STARLINK-3832           
1 52646U 22052BA  22275.86556967  .00001135  00000+0  89429-4 0  9999
2 52646  53.2175 127.7470 0001946  34.7601 325.3518 15.08838747 21851
STARLINK-3846           
1 52647U 22052BB  22275.91435856 -.00001129  00000+0 -52802-4 0  9999
2 52647  53.2188 127.5291 0001772  48.0915 312.0228 15.08846857 22233
STARLINK-3854           
1 52648U 22052BC  22275.86188792  .00000041  00000+0  20672-4 0  9998
2 52648  53.2176 127.7618 0001799  46.0422 314.0718 15.08836940 21840
STARLINK-3868           
1 52649U 22052BD  22275.85180298 -.00001749  00000+0 -91857-4 0  9992
2 52649  53.2192 127.8089 0001707  49.4721 310.6420 15.08833422 21855
STARLINK-3891           
1 52650U 22052BE  22275.86007556 -.00001357  00000+0 -67190-4 0  9998
2 52650  53.2177 117.7646 0001742  49.9230 310.1915 15.08836009 21999
